{"type": "FeatureCollection", "features": [ {"type": "Feature", "properties": {"norad_id": 33492, "name": "GOSAT (IBUKI)", "group": "resource", "lat": -31.066108018347094, "lon": 107.56246918810623, "alt_km": 675.4007125401631, "timestamp": "2025-12-20T03:42:47.048810+00:00", "meta": {"OBJECT_NAME": "GOSAT (IBUKI)", "OBJECT_ID": "2009-002A", "EPOCH": "2025-12-19T04:56:48.128640", "MEAN_MOTION": 14.67537344, "ECCENTRICITY": 9.91e-05, "INCLINATION": 98.0771, "RA_OF_ASC_NODE": 101.7196, "ARG_OF_PERICENTER": 100.0781, "MEAN_ANOMALY": 260.0536, "EPHEMERIS_TYPE": 0, "CLASSIFICATION_TYPE": "U", "NORAD_CAT_ID": 33492, "ELEMENT_SET_NO": 999, "REV_AT_EPOCH": 90506, "BSTAR": 0.00011356, "MEAN_MOTION_DOT": 5.96e-06, "MEAN_MOTION_DDOT": 0}, "tle": {"line1": "1 33492U 09002A   25353.20611260  .00000596  00000+0  11356-3 0  9996", "line2": "2 33492  98.0771 101.7196 0000991 100.0781 260.0536 14.67537344905062"}}, "geometry": {"type": "Point", "coordinates": [107.56246918810623, -31.066108018347094]}}, {"type": "Feature", "properties": {"norad_id": 35681, "name": "DEIMOS-1", "group": "resource", "lat": -62.965789893297476, "lon": -40.99239221841138, "alt_km": 654.2980149699833, "timestamp": "2025-12-20T03:42:47.048821+00:00", "meta": {"OBJECT_NAME": "DEIMOS-1", "OBJECT_ID": "2009-041A", "EPOCH": "2025-12-19T20:05:52.230048", "MEAN_MOTION": 14.74964702, "ECCENTRICITY": 0.0002614, "INCLINATION": 97.7142, "RA_OF_ASC_NODE": 154.11, "ARG_OF_PERICENTER": 68.2929, "MEAN_ANOMALY": 291.8559, "EPHEMERIS_TYPE": 0, "CLASSIFICATION_TYPE": "U", "NORAD_CAT_ID": 35681, "ELEMENT_SET_NO": 999, "REV_AT_EPOCH": 88044, "BSTAR": 0.00014151, "MEAN_MOTION_DOT": 9.04e-06, "MEAN_MOTION_DDOT": 0}, "tle": {"line1": "1 35681U 09041A   25353.83741007  .00000904  00000+0  14151-3 0  9992", "line2": "2 35681  97.7142 154.1100 0002614  68.2929 291.8559 14.74964702880443"}}, "geometry": {"type": "Point", "coordinates": [-40.99239221841138, -62.965789893297476]}}, {"type": "Feature", "properties": {"norad_id": 35682, "name": "DUBAISAT-1", "group": "resource", "lat": 10.068624051007603, "lon": -53.84738124307985, "alt_km": 651.0707474631945, "timestamp": "2025-12-20T03:42:47.048832+00:00", "meta": {"OBJECT_NAME": "DUBAISAT-1", "OBJECT_ID": "2009-041B", "EPOCH": "2025-12-19T09:01:52.608576", "MEAN_MOTION": 14.74621138, "ECCENTRICITY": 0.0009289, "INCLINATION": 97.9797, "RA_OF_ASC_NODE": 123.9586, "ARG_OF_PERICENTER": 290.7501, "MEAN_ANOMALY": 69.2712, "EPHEMERIS_TYPE": 0, "CLASSIFICATION_TYPE": "U", "NORAD_CAT_ID": 35682, "ELEMENT_SET_NO": 999, "REV_AT_EPOCH": 87859, "BSTAR": 0.00014564, "MEAN_MOTION_DOT": 9.21e-06, "MEAN_MOTION_DDOT": 0}, "tle": {"line1": "1 35682U 09041B   25353.37630334  .00000921  00000+0  14564-3 0  9999", "line2": "2 35682  97.9797 123.9586 0009289 290.7501  69.2712 14.74621138878591"}}, "geometry": {"type": "Point", "coordinates": [-53.84738124307985, 10.068624051007603]}}, {"type": "Feature", "properties": {"norad_id": 35931, "name": "OCEANSAT-2", "group": "resource", "lat": 30.978373530926397, "lon": 178.982372602013, "alt_km": 899.6910101266349, "timestamp": "2025-12-20T03:42:47.048843+00:00", "meta": {"OBJECT_NAME": "OCEANSAT-2", "OBJECT_ID": "2009-051A", "EPOCH": "2025-12-19T20:08:37.877856", "MEAN_MOTION": 13.99623219, "ECCENTRICITY": 0.0016034, "INCLINATION": 98.2217, "RA_OF_ASC_NODE": 353.7196, "ARG_OF_PERICENTER": 26.4548, "MEAN_ANOMALY": 333.7434, "EPHEMERIS_TYPE": 0, "CLASSIFICATION_TYPE": "U", "NORAD_CAT_ID": 35931, "ELEMENT_SET_NO": 999, "REV_AT_EPOCH": 85424, "BSTAR": -6.3654e-05, "MEAN_MOTION_DOT": -1.31e-06, "MEAN_MOTION_DDOT": 0}, "tle": {"line1": "1 35931U 09051A   25353.83932729 -.00000131  00000+0 -63654-4 0  9991", "line2": "2 35931  98.2217 353.7196 0016034  26.4548 333.7434 13.99623219854244"}}, "geometry": {"type": "Point", "coordinates": [178.982372602013, 30.978373530926397]}}, {"type": "Feature", "properties": {"norad_id": 35946, "name": "WORLDVIEW-2 (WV-2)", "group": "resource", "lat": -25.401869216034644, "lon": -118.92428947365606, "alt_km": 774.7682414862202, "timestamp": "2025-12-20T03:42:47.048853+00:00", "meta": {"OBJECT_NAME": "WORLDVIEW-2 (WV-2)", "OBJECT_ID": "2009-055A", "EPOCH": "2025-12-19T18:24:31.525056", "MEAN_MOTION": 14.37726879, "ECCENTRICITY": 0.0004952, "INCLINATION": 98.4781, "RA_OF_ASC_NODE": 64.7551, "ARG_OF_PERICENTER": 53.4721, "MEAN_ANOMALY": 306.6921, "EPHEMERIS_TYPE": 0, "CLASSIFICATION_TYPE": "U", "NORAD_CAT_ID": 35946, "ELEMENT_SET_NO": 999, "REV_AT_EPOCH": 84986, "BSTAR": 5.4631e-05, "MEAN_MOTION_DOT": 1.21e-06, "MEAN_MOTION_DDOT": 0}, "tle": {"line1": "1 35946U 09055A   25353.76703154  .00000121  00000+0  54631-4 0  9993", "line2": "2 35946  98.4781  64.7551 0004952  53.4721 306.6921 14.37726879849862"}}, "geometry": {"type": "Point", "coordinates": [-118.92428947365606, -25.401869216034644]}}, {"type": "Feature", "properties": {"norad_id": 36036, "name": "SMOS", "group": "resource", "lat": -63.91539694563075, "lon": -163.25629357967884, "alt_km": 767.1583636900141, "timestamp": "2025-12-20T03:42:47.048864+00:00", "meta": {"OBJECT_NAME": "SMOS", "OBJECT_ID": "2009-059A", "EPOCH": "2025-12-19T11:20:10.902624", "MEAN_MOTION": 14.39746894, "ECCENTRICITY": 0.0001083, "INCLINATION": 98.438, "RA_OF_ASC_NODE": 178.4211, "ARG_OF_PERICENTER": 82.411, "MEAN_ANOMALY": 277.7201, "EPHEMERIS_TYPE": 0, "CLASSIFICATION_TYPE": "U", "NORAD_CAT_ID": 36036, "ELEMENT_SET_NO": 999, "REV_AT_EPOCH": 84759, "BSTAR": 0.00010424, "MEAN_MOTION_DOT": 2.83e-06, "MEAN_MOTION_DDOT": 0}, "tle": {"line1": "1 36036U 09059A   25353.47234841  .00000283  00000+0  10424-3 0  9998", "line2": "2 36036  98.4380 178.4211 0001083  82.4110 277.7201 14.39746894847598"}}, "geometry": {"type": "Point", "coordinates": [-163.25629357967884, -63.91539694563075]}}, {"type": "Feature", "properties": {"norad_id": 36110, "name": "YAOGAN-7", "group": "resource", "lat": 51.638868708395115, "lon": -134.3890518249129, "alt_km": 646.6717685140375, "timestamp": "2025-12-20T03:42:47.048874+00:00", "meta": {"OBJECT_NAME": "YAOGAN-7", "OBJECT_ID": "2009-069A", "EPOCH": "2025-12-19T04:43:30.237600", "MEAN_MOTION": 14.77741395, "ECCENTRICITY": 0.0023351, "INCLINATION": 98.0297, "RA_OF_ASC_NODE": 234.9307, "ARG_OF_PERICENTER": 259.2514, "MEAN_ANOMALY": 100.6067, "EPHEMERIS_TYPE": 0, "CLASSIFICATION_TYPE": "U", "NORAD_CAT_ID": 36110, "ELEMENT_SET_NO": 999, "REV_AT_EPOCH": 86304, "BSTAR": 7.003e-05, "MEAN_MOTION_DOT": 4.51e-06, "MEAN_MOTION_DDOT": 0}, "tle": {"line1": "1 36110U 09069A   25353.19687775  .00000451  00000+0  70030-4 0  9996", "line2": "2 36110  98.0297 234.9307 0023351 259.2514 100.6067 14.77741395863047"}}, "geometry": {"type": "Point", "coordinates": [-134.3890518249129, 51.638868708395115]}}, {"type": "Feature", "properties": {"norad_id": 36605, "name": "TANDEM-X", "group": "resource", "lat": -38.23344685379211, "lon": 5.339628263190105, "alt_km": 515.4236964299116, "timestamp": "2025-12-20T03:42:47.048885+00:00", "meta": {"OBJECT_NAME": "TANDEM-X", "OBJECT_ID": "2010-030A", "EPOCH": "2025-12-19T12:04:27.806304", "MEAN_MOTION": 15.19152689, "ECCENTRICITY": 0.0001806, "INCLINATION": 97.4444, "RA_OF_ASC_NODE": 358.7845, "ARG_OF_PERICENTER": 78.9569, "MEAN_ANOMALY": 281.1868, "EPHEMERIS_TYPE": 0, "CLASSIFICATION_TYPE": "U", "NORAD_CAT_ID": 36605, "ELEMENT_SET_NO": 999, "REV_AT_EPOCH": 85936, "BSTAR": 3.4902e-05, "MEAN_MOTION_DOT": 6.66e-06, "MEAN_MOTION_DDOT": 0}, "tle": {"line1": "1 36605U 10030A   25353.50309961  .00000666  00000+0  34902-4 0  9994", "line2": "2 36605  97.4444 358.7845 0001806  78.9569 281.1868 15.19152689859365"}}, "geometry": {"type": "Point", "coordinates": [5.339628263190105, -38.23344685379211]}}, {"type": "Feature", "properties": {"norad_id": 36795, "name": "CARTOSAT-2B", "group": "resource", "lat": 5.737340339625994, "lon": 42.156846120950036, "alt_km": 629.615285271454, "timestamp": "2025-12-20T03:42:47.048894+00:00", "meta": {"OBJECT_NAME": "CARTOSAT-2B", "OBJECT_ID": "2010-035A", "EPOCH": "2025-12-19T21:11:27.572064", "MEAN_MOTION": 14.78732465, "ECCENTRICITY": 0.0012847, "INCLINATION": 97.7848, "RA_OF_ASC_NODE": 42.6815, "ARG_OF_PERICENTER": 55.4614, "MEAN_ANOMALY": 304.7809, "EPHEMERIS_TYPE": 0, "CLASSIFICATION_TYPE": "U", "NORAD_CAT_ID": 36795, "ELEMENT_SET_NO": 999, "REV_AT_EPOCH": 83335, "BSTAR": 1.1855e-05, "MEAN_MOTION_DOT": 3.7e-07, "MEAN_MOTION_DDOT": 0}, "tle": {"line1": "1 36795U 10035A   25353.88295801  .00000037  00000+0  11855-4 0  9991", "line2": "2 36795  97.7848  42.6815 0012847  55.4614 304.7809 14.78732465833358"}}, "geometry": {"type": "Point", "coordinates": [42.156846120950036, 5.737340339625994]}}, {"type": "Feature", "properties": {"norad_id": 36834, "name": "YAOGAN-10", "group": "resource", "lat": -62.33243428717155, "lon": 178.53506081211512, "alt_km": 622.8994261177713, "timestamp": "2025-12-20T03:42:47.048905+00:00", "meta": {"OBJECT_NAME": "YAOGAN-10", "OBJECT_ID": "2010-038A", "EPOCH": "2025-12-19T20:36:47.162016", "MEAN_MOTION": 14.84633897, "ECCENTRICITY": 0.0001446, "INCLINATION": 97.9136, "RA_OF_ASC_NODE": 13.6266, "ARG_OF_PERICENTER": 79.3553, "MEAN_ANOMALY": 23.8226, "EPHEMERIS_TYPE": 0, "CLASSIFICATION_TYPE": "U", "NORAD_CAT_ID": 36834, "ELEMENT_SET_NO": 999, "REV_AT_EPOCH": 83059, "BSTAR": 0.00018161, "MEAN_MOTION_DOT": 1.481e-05, "MEAN_MOTION_DDOT": 0}, "tle": {"line1": "1 36834U 10038A   25353.85887919  .00001481  00000+0  18161-3 0  9992", "line2": "2 36834  97.9136  13.6266 0001446  79.3553  23.8226 14.84633897830593"}}, "geometry": {"type": "Point", "coordinates": [178.53506081211512, -62.33243428717155]}}]}